STARLINK-36833
1 68109U 26044J   26092.83335647 -.01866999  00000+0 -31192-1 0  9994
2 68109  97.2854  54.1020 0001632  83.0610  30.2004 15.55268518  5283
